[{"OBJECT_NAME":"BRO-11","OBJECT_ID":"2023-174J","EPOCH":"2026-03-09T23:01:09.890400","MEAN_MOTION":15.26267731,"ECCENTRICITY":0.00104518,"INCLINATION":97.3961,"RA_OF_ASC_NODE":146.7679,"ARG_OF_PERICENTER":189.9892,"MEAN_ANOMALY":170.1141,"EPHEMERIS_TYPE":0,"CLASSIFICATION_TYPE":"U","NORAD_CAT_ID":58264,"ELEMENT_SET_NO":999,"REV_AT_EPOCH":12961,"BSTAR":0.00032296323,"MEAN_MOTION_DOT":8.313e-5,"MEAN_MOTION_DDOT":0},{"OBJECT_NAME":"STARLINK-31938","OBJECT_ID":"2024-098H","EPOCH":"2026-03-09T14:04:29.216928","MEAN_MOTION":15.27575057,"ECCENTRICITY":0.0002368,"INCLINATION":43.0016,"RA_OF_ASC_NODE":278.2884,"ARG_OF_PERICENTER":258.0482,"MEAN_ANOMALY":102.0104,"EPHEMERIS_TYPE":0,"CLASSIFICATION_TYPE":"U","NORAD_CAT_ID":59865,"ELEMENT_SET_NO":999,"REV_AT_EPOCH":10183,"BSTAR":0.00020509,"MEAN_MOTION_DOT":5.385e-5,"MEAN_MOTION_DDOT":0}]
